{"type": "FeatureCollection", "features": [ {"type": "Feature", "properties": {"norad_id": 32260, "name": "GPS BIIRM-4 (PRN 15)", "group": "gnss", "lat": 2.360046809912625, "lon": 89.26815903500687, "alt_km": 20117.027287676246, "timestamp": "2025-12-17T17:50:19.492668+00:00", "meta": {"OBJECT_NAME": "GPS BIIRM-4 (PRN 15)", "OBJECT_ID": "2007-047A", "EPOCH": "2025-12-16T05:50:40.703424", "MEAN_MOTION": 2.00564422, "ECCENTRICITY": 0.01640582, "INCLINATION": 53.9575, "RA_OF_ASC_NODE": 87.6137, "ARG_OF_PERICENTER": 85.2876, "MEAN_ANOMALY": 276.573, "EPHEMERIS_TYPE": 0, "CLASSIFICATION_TYPE": "U", "NORAD_CAT_ID": 32260, "ELEMENT_SET_NO": 999, "REV_AT_EPOCH": 13314, "BSTAR": 0, "MEAN_MOTION_DOT": -5.5e-07, "MEAN_MOTION_DDOT": 0}, "tle": {"line1": "1 32260U 07047A   25350.24352666 -.00000055  00000+0  00000+0 0  9999", "line2": "2 32260  53.9575  87.6137 0164058  85.2876 276.5730  2.00564422133148"}}, "geometry": {"type": "Point", "coordinates": [89.26815903500687, 2.360046809912625]}}, {"type": "Feature", "properties": {"norad_id": 32275, "name": "COSMOS 2433 (720)", "group": "gnss", "lat": -26.812482963571203, "lon": -51.186480211896374, "alt_km": 19130.321939023972, "timestamp": "2025-12-17T17:50:19.492681+00:00", "meta": {"OBJECT_NAME": "COSMOS 2433 (720)", "OBJECT_ID": "2007-052A", "EPOCH": "2025-12-14T23:11:38.718240", "MEAN_MOTION": 2.13103955, "ECCENTRICITY": 0.00054201, "INCLINATION": 65.6819, "RA_OF_ASC_NODE": 322.1305, "ARG_OF_PERICENTER": 253.5649, "MEAN_ANOMALY": 106.3736, "EPHEMERIS_TYPE": 0, "CLASSIFICATION_TYPE": "U", "NORAD_CAT_ID": 32275, "ELEMENT_SET_NO": 999, "REV_AT_EPOCH": 14113, "BSTAR": 0, "MEAN_MOTION_DOT": -6.5e-07, "MEAN_MOTION_DDOT": 0}, "tle": {"line1": "1 32275U 07052A   25348.96642035 -.00000065  00000+0  00000+0 0  9990", "line2": "2 32275  65.6819 322.1305 0005420 253.5649 106.3736  2.13103955141132"}}, "geometry": {"type": "Point", "coordinates": [-51.186480211896374, -26.812482963571203]}}, {"type": "Feature", "properties": {"norad_id": 32276, "name": "COSMOS 2432 (719)", "group": "gnss", "lat": -65.26954629927131, "lon": -116.64880958759427, "alt_km": 19113.69793452237, "timestamp": "2025-12-17T17:50:19.492693+00:00", "meta": {"OBJECT_NAME": "COSMOS 2432 (719)", "OBJECT_ID": "2007-052B", "EPOCH": "2025-12-15T06:31:38.583840", "MEAN_MOTION": 2.13103103, "ECCENTRICITY": 0.00112605, "INCLINATION": 65.6973, "RA_OF_ASC_NODE": 322.2446, "ARG_OF_PERICENTER": 312.4858, "MEAN_ANOMALY": 226.3212, "EPHEMERIS_TYPE": 0, "CLASSIFICATION_TYPE": "U", "NORAD_CAT_ID": 32276, "ELEMENT_SET_NO": 999, "REV_AT_EPOCH": 14116, "BSTAR": 0, "MEAN_MOTION_DOT": -6.6e-07, "MEAN_MOTION_DDOT": 0}, "tle": {"line1": "1 32276U 07052B   25349.27197435 -.00000066  00000+0  00000+0 0  9996", "line2": "2 32276  65.6973 322.2446 0011260 312.4858 226.3212  2.13103103141167"}}, "geometry": {"type": "Point", "coordinates": [-116.64880958759427, -65.26954629927131]}}, {"type": "Feature", "properties": {"norad_id": 32384, "name": "GPS BIIRM-5 (PRN 29)", "group": "gnss", "lat": 36.16428230376703, "lon": 70.89431887711471, "alt_km": 20100.94463196645, "timestamp": "2025-12-17T17:50:19.492706+00:00", "meta": {"OBJECT_NAME": "GPS BIIRM-5 (PRN 29)", "OBJECT_ID": "2007-062A", "EPOCH": "2025-12-16T19:22:21.732672", "MEAN_MOTION": 2.00577594, "ECCENTRICITY": 0.0032249, "INCLINATION": 55.1786, "RA_OF_ASC_NODE": 281.4828, "ARG_OF_PERICENTER": 162.2986, "MEAN_ANOMALY": 15.9546, "EPHEMERIS_TYPE": 0, "CLASSIFICATION_TYPE": "U", "NORAD_CAT_ID": 32384, "ELEMENT_SET_NO": 999, "REV_AT_EPOCH": 13185, "BSTAR": 0, "MEAN_MOTION_DOT": -6.1e-07, "MEAN_MOTION_DDOT": 0}, "tle": {"line1": "1 32384U 07062A   25350.80719598 -.00000061  00000+0  00000+0 0  9993", "line2": "2 32384  55.1786 281.4828 0032249 162.2986  15.9546  2.00577594131858"}}, "geometry": {"type": "Point", "coordinates": [70.89431887711471, 36.16428230376703]}}, {"type": "Feature", "properties": {"norad_id": 32393, "name": "COSMOS 2434 (721)", "group": "gnss", "lat": -36.12877350726989, "lon": 38.61125999562339, "alt_km": 19144.334554785277, "timestamp": "2025-12-17T17:50:19.492718+00:00", "meta": {"OBJECT_NAME": "COSMOS 2434 (721)", "OBJECT_ID": "2007-065A", "EPOCH": "2025-12-15T08:26:38.759136", "MEAN_MOTION": 2.13101367, "ECCENTRICITY": 0.00044341, "INCLINATION": 64.3148, "RA_OF_ASC_NODE": 198.1152, "ARG_OF_PERICENTER": 71.4602, "MEAN_ANOMALY": 114.7825, "EPHEMERIS_TYPE": 0, "CLASSIFICATION_TYPE": "U", "NORAD_CAT_ID": 32393, "ELEMENT_SET_NO": 999, "REV_AT_EPOCH": 13985, "BSTAR": 0, "MEAN_MOTION_DOT": 1.05e-06, "MEAN_MOTION_DDOT": 0}, "tle": {"line1": "1 32393U 07065A   25349.35183749  .00000105  00000+0  00000+0 0  9995", "line2": "2 32393  64.3148 198.1152 0004434  71.4602 114.7825  2.13101367139858"}}, "geometry": {"type": "Point", "coordinates": [38.61125999562339, -36.12877350726989]}}, {"type": "Feature", "properties": {"norad_id": 32395, "name": "COSMOS 2436 (723)", "group": "gnss", "lat": -5.593902693368976, "lon": -164.59280364764183, "alt_km": 19087.59176785857, "timestamp": "2025-12-17T17:50:19.492731+00:00", "meta": {"OBJECT_NAME": "COSMOS 2436 (723)", "OBJECT_ID": "2007-065C", "EPOCH": "2025-12-16T08:11:52.503360", "MEAN_MOTION": 2.13100112, "ECCENTRICITY": 0.00177699, "INCLINATION": 64.3235, "RA_OF_ASC_NODE": 198.1521, "ARG_OF_PERICENTER": 9.2217, "MEAN_ANOMALY": 349.3751, "EPHEMERIS_TYPE": 0, "CLASSIFICATION_TYPE": "U", "NORAD_CAT_ID": 32395, "ELEMENT_SET_NO": 999, "REV_AT_EPOCH": 13982, "BSTAR": 0, "MEAN_MOTION_DOT": 1.1e-06, "MEAN_MOTION_DDOT": 0}, "tle": {"line1": "1 32395U 07065C   25350.34157990  .00000110  00000+0  00000+0 0  9993", "line2": "2 32395  64.3235 198.1521 0017769   9.2217 349.3751  2.13100112139821"}}, "geometry": {"type": "Point", "coordinates": [-164.59280364764183, -5.593902693368976]}}, {"type": "Feature", "properties": {"norad_id": 32711, "name": "GPS BIIRM-6 (PRN 07)", "group": "gnss", "lat": 44.00842558056852, "lon": -159.1768395415146, "alt_km": 20711.27378403008, "timestamp": "2025-12-17T17:50:19.492743+00:00", "meta": {"OBJECT_NAME": "GPS BIIRM-6 (PRN 07)", "OBJECT_ID": "2008-012A", "EPOCH": "2025-12-16T03:55:52.800384", "MEAN_MOTION": 2.00565827, "ECCENTRICITY": 0.0202594, "INCLINATION": 54.4775, "RA_OF_ASC_NODE": 157.2362, "ARG_OF_PERICENTER": 244.9852, "MEAN_ANOMALY": 112.9072, "EPHEMERIS_TYPE": 0, "CLASSIFICATION_TYPE": "U", "NORAD_CAT_ID": 32711, "ELEMENT_SET_NO": 999, "REV_AT_EPOCH": 13008, "BSTAR": 0, "MEAN_MOTION_DOT": 8.9e-07, "MEAN_MOTION_DDOT": 0}, "tle": {"line1": "1 32711U 08012A   25350.16380556  .00000089  00000+0  00000+0 0  9999", "line2": "2 32711  54.4775 157.2362 0202594 244.9852 112.9072  2.00565827130089"}}, "geometry": {"type": "Point", "coordinates": [-159.1768395415146, 44.00842558056852]}}, {"type": "Feature", "properties": {"norad_id": 35752, "name": "GPS BIIRM-8 (PRN 05)", "group": "gnss", "lat": 54.34776149370434, "lon": 104.14484901973546, "alt_km": 20038.444052061124, "timestamp": "2025-12-17T17:50:19.492755+00:00", "meta": {"OBJECT_NAME": "GPS BIIRM-8 (PRN 05)", "OBJECT_ID": "2009-043A", "EPOCH": "2025-12-15T22:20:02.106816", "MEAN_MOTION": 2.00565586, "ECCENTRICITY": 0.00517182, "INCLINATION": 56.0932, "RA_OF_ASC_NODE": 34.6571, "ARG_OF_PERICENTER": 81.8462, "MEAN_ANOMALY": 127.6063, "EPHEMERIS_TYPE": 0, "CLASSIFICATION_TYPE": "U", "NORAD_CAT_ID": 35752, "ELEMENT_SET_NO": 999, "REV_AT_EPOCH": 11968, "BSTAR": 0, "MEAN_MOTION_DOT": -8.6e-07, "MEAN_MOTION_DDOT": 0}, "tle": {"line1": "1 35752U 09043A   25349.93057994 -.00000086  00000+0  00000+0 0  9990", "line2": "2 35752  56.0932  34.6571 0051718  81.8462 127.6063  2.00565586119683"}}, "geometry": {"type": "Point", "coordinates": [104.14484901973546, 54.34776149370434]}}, {"type": "Feature", "properties": {"norad_id": 36111, "name": "COSMOS 2456 (730)", "group": "gnss", "lat": 16.250459774735365, "lon": 85.01369019466505, "alt_km": 19126.74780727096, "timestamp": "2025-12-17T17:50:19.492767+00:00", "meta": {"OBJECT_NAME": "COSMOS 2456 (730)", "OBJECT_ID": "2009-070A", "EPOCH": "2025-12-16T18:52:21.859968", "MEAN_MOTION": 2.13103663, "ECCENTRICITY": 0.00031004, "INCLINATION": 64.903, "RA_OF_ASC_NODE": 77.1993, "ARG_OF_PERICENTER": 298.2574, "MEAN_ANOMALY": 65.6059, "EPHEMERIS_TYPE": 0, "CLASSIFICATION_TYPE": "U", "NORAD_CAT_ID": 36111, "ELEMENT_SET_NO": 999, "REV_AT_EPOCH": 12454, "BSTAR": 0, "MEAN_MOTION_DOT": -5.4e-07, "MEAN_MOTION_DDOT": 0}, "tle": {"line1": "1 36111U 09070A   25350.78636412 -.00000054  00000+0  00000+0 0  9998", "line2": "2 36111  64.9030  77.1993 0003100 298.2574  65.6059  2.13103663124545"}}, "geometry": {"type": "Point", "coordinates": [85.01369019466505, 16.250459774735365]}}, {"type": "Feature", "properties": {"norad_id": 36112, "name": "COSMOS 2457 (733)", "group": "gnss", "lat": 29.473015789141968, "lon": -118.31906341868518, "alt_km": 19115.080193962545, "timestamp": "2025-12-17T17:50:19.492779+00:00", "meta": {"OBJECT_NAME": "COSMOS 2457 (733)", "OBJECT_ID": "2009-070B", "EPOCH": "2025-12-15T22:24:14.107104", "MEAN_MOTION": 2.13100894, "ECCENTRICITY": 0.00046417, "INCLINATION": 64.8877, "RA_OF_ASC_NODE": 77.076, "ARG_OF_PERICENTER": 159.3644, "MEAN_ANOMALY": 39.3126, "EPHEMERIS_TYPE": 0, "CLASSIFICATION_TYPE": "U", "NORAD_CAT_ID": 36112, "ELEMENT_SET_NO": 999, "REV_AT_EPOCH": 12452, "BSTAR": 0, "MEAN_MOTION_DOT": -5.8e-07, "MEAN_MOTION_DDOT": 0}, "tle": {"line1": "1 36112U 09070B   25349.93349661 -.00000058  00000+0  00000+0 0  9995", "line2": "2 36112  64.8877  77.0760 0004641 159.3644  39.3126  2.13100894124525"}}, "geometry": {"type": "Point", "coordinates": [-118.31906341868518, 29.473015789141968]}}]}